[{"OBJECT_NAME":"STARLINK-32863","OBJECT_ID":"2025-029W","EPOCH":"2026-03-09T16:13:24.792096","MEAN_MOTION":15.30198072,"ECCENTRICITY":8.343e-5,"INCLINATION":53.1573,"RA_OF_ASC_NODE":232.651,"ARG_OF_PERICENTER":62.0065,"MEAN_ANOMALY":298.102,"EPHEMERIS_TYPE":0,"CLASSIFICATION_TYPE":"U","NORAD_CAT_ID":62968,"ELEMENT_SET_NO":999,"REV_AT_EPOCH":6045,"BSTAR":0.00090243843,"MEAN_MOTION_DOT":0.00026462,"MEAN_MOTION_DDOT":0},{"OBJECT_NAME":"SPACEMOBILE-005 DEB","OBJECT_ID":"2024-163K","EPOCH":"2026-03-09T07:33:15.902496","MEAN_MOTION":15.31481997,"ECCENTRICITY":0.00072885,"INCLINATION":52.9762,"RA_OF_ASC_NODE":31.7924,"ARG_OF_PERICENTER":175.8731,"MEAN_ANOMALY":184.2329,"EPHEMERIS_TYPE":0,"CLASSIFICATION_TYPE":"U","NORAD_CAT_ID":62373,"ELEMENT_SET_NO":999,"REV_AT_EPOCH":8280,"BSTAR":0.00063853778,"MEAN_MOTION_DOT":0.00019381,"MEAN_MOTION_DDOT":0}]
